[{"OBJECT_NAME":"STARLINK-1420","OBJECT_ID":"2020-035AQ","EPOCH":"2026-03-10T00:00:02.999808","MEAN_MOTION":15.53743401,"ECCENTRICITY":0.00043485,"INCLINATION":53.0536,"RA_OF_ASC_NODE":20.9202,"ARG_OF_PERICENTER":112.4673,"MEAN_ANOMALY":249.9349,"EPHEMERIS_TYPE":0,"CLASSIFICATION_TYPE":"U","NORAD_CAT_ID":45695,"ELEMENT_SET_NO":999,"REV_AT_EPOCH":587,"BSTAR":0.0013975342,"MEAN_MOTION_DOT":0.00091715,"MEAN_MOTION_DDOT":0},{"OBJECT_NAME":"STARLINK-4720","OBJECT_ID":"2022-111AD","EPOCH":"2026-03-09T17:15:59.769792","MEAN_MOTION":15.52966516,"ECCENTRICITY":0.00033906,"INCLINATION":53.211,"RA_OF_ASC_NODE":239.7837,"ARG_OF_PERICENTER":149.7852,"MEAN_ANOMALY":210.3356,"EPHEMERIS_TYPE":0,"CLASSIFICATION_TYPE":"U","NORAD_CAT_ID":53800,"ELEMENT_SET_NO":999,"REV_AT_EPOCH":19416,"BSTAR":0.00052142465,"MEAN_MOTION_DOT":0.00032713,"MEAN_MOTION_DDOT":0}]
